NORAD_CAT_ID,OBJECT_NAME,OBJECT_TYPE,EPOCH,MEAN_MOTION,ECCENTRICITY,INCLINATION,RA_OF_ASC_NODE,ARG_OF_PERICENTER,MEAN_ANOMALY,BSTAR,MEAN_MOTION_DOT,MEAN_MOTION_DDOT,TLE_LINE0,TLE_LINE1,TLE_LINE2,SEMIMAJOR_AXIS,PERIOD,APOGEE,PERIGEE,DECAYED
52866.0,STARLINK-4272,PAYLOAD,2024-06-29 13:50:19,15.08821045,0.0001069,53.2163,278.9437,86.2032,273.9082,-6.5884e-05,-1.336e-05,0.0,0 STARLINK-4272,1 52866U 22062AN  24181.57661174 -.00001336  00000-0 -65884-4 0  9992,2 52866  53.2163 278.9437 0001069  86.2032 273.9082 15.08821045112612,6917.938,95.439,540.543,539.064,0.0
52866.0,STARLINK-4272,PAYLOAD,2024-06-29 23:22:37,15.08828042,0.0001241,53.2179,277.1589,83.6517,276.4616,2.6956e-05,1.41e-06,0.0,0 STARLINK-4272,1 52866U 22062AN  24181.97404898  .00000141  00000-0  26956-4 0  9992,2 52866  53.2179 277.1589 0001241  83.6517 276.4616 15.08828042113165,6917.917,95.438,540.64,538.923,0.0
52866.0,STARLINK-4272,PAYLOAD,2024-06-30 12:05:42,15.08839646,0.0001246,53.2163,274.78,84.7429,275.3705,8.7724e-06,-1.48e-06,0.0,0 STARLINK-4272,1 52866U 22062AN  24182.50396239 -.00000148  00000-0  87724-5 0  9990,2 52866  53.2163 274.7800 0001246  84.7429 275.3705 15.08839646113244,6917.881,95.438,540.608,538.885,0.0
52866.0,STARLINK-4272,PAYLOAD,2024-06-30 13:41:04,15.08849942,9.16e-05,53.2149,274.4777,89.4967,270.613,0.00011368,1.522e-05,0.0,0 STARLINK-4272,1 52866U 22062AN  24182.57019575  .00001522  00000-0  11368-3 0  9997,2 52866  53.2149 274.4777 0000916  89.4967 270.6130 15.08849942112766,6917.85,95.437,540.349,539.081,0.0
52866.0,STARLINK-4272,PAYLOAD,2024-06-30 15:16:28,15.08848241,8.48e-05,53.2139,274.184,104.3915,255.7172,0.00018019,2.582e-05,0.0,0 STARLINK-4272,1 52866U 22062AN  24182.63643649  .00002582  00000-0  18019-3 0  9996,2 52866  53.2139 274.1840 0000848 104.3915 255.7172 15.08848241113264,6917.855,95.437,540.307,539.134,0.0
52866.0,STARLINK-4272,PAYLOAD,2024-07-01 05:34:57,15.08827975,0.0001106,53.2162,271.506,71.0429,289.0683,0.00037046,5.611e-05,0.0,0 STARLINK-4272,1 52866U 22062AN  24183.23261066  .00005611  00000-0  37046-3 0  9999,2 52866  53.2162 271.5060 0001106  71.0429 289.0683 15.08827975113351,6917.917,95.438,540.547,539.017,0.0
52866.0,STARLINK-4272,PAYLOAD,2024-07-01 13:31:51,15.08846868,0.0001077,53.2158,270.0182,70.3134,289.7974,0.00027627,4.113e-05,0.0,0 STARLINK-4272,1 52866U 22062AN  24183.56379619  .00004113  00000-0  27627-3 0  9999,2 52866  53.2158 270.0182 0001077  70.3134 289.7974 15.08846868113405,6917.859,95.437,540.469,538.979,0.0
52866.0,STARLINK-4272,PAYLOAD,2024-07-02 05:25:44,15.08841046,0.0001263,53.2142,267.0471,78.8629,281.2505,0.00012281,1.667e-05,0.0,0 STARLINK-4272,1 52866U 22062AN  24184.22620511  .00001667  00000-0  12281-3 0  9994,2 52866  53.2142 267.0471 0001263  78.8629 281.2505 15.08841046113505,6917.877,95.437,540.616,538.868,0.0
52866.0,STARLINK-4272,PAYLOAD,2024-07-02 11:47:16,15.08846504,9.87e-05,53.2153,265.857,95.439,264.6715,1.066e-05,-1.18e-06,0.0,0 STARLINK-4272,1 52866U 22062AN  24184.49116300 -.00000118  00000-0  10660-4 0  9990,2 52866  53.2153 265.8570 0000987  95.4390 264.6715 15.08846504113057,6917.861,95.437,540.408,539.043,0.0
52866.0,STARLINK-4272,PAYLOAD,2024-07-03 11:38:03,15.088489,0.0001082,53.2152,261.3964,83.7163,276.3952,4.9297e-05,4.97e-06,0.0,0 STARLINK-4272,1 52866U 22062AN  24185.48475843  .00000497  00000-0  49297-4 0  9997,2 52866  53.2152 261.3964 0001082  83.7163 276.3952 15.08848900113694,6917.853,95.437,540.467,538.97,0.0
52866.0,STARLINK-4272,PAYLOAD,2024-07-03 14:48:49,15.08851681,9.6e-05,53.2154,260.8015,79.322,280.7881,5.7271e-05,6.24e-06,0.0,0 STARLINK-4272,1 52866U 22062AN  24185.61723553  .00000624  00000-0  57271-4 0  9999,2 52866  53.2154 260.8015 0000960  79.3220 280.7881 15.08851681113225,6917.845,95.437,540.374,539.046,0.0
52866.0,STARLINK-4272,PAYLOAD,2024-07-04 05:07:18,15.08835549,0.0001168,53.2158,258.1259,93.8746,266.238,4.857e-05,4.85e-06,0.0,0 STARLINK-4272,1 52866U 22062AN  24186.21340564  .00000485  00000-0  48570-4 0  9990,2 52866  53.2158 258.1259 0001168  93.8746 266.2380 15.08835549113806,6917.894,95.438,540.567,538.951,0.0
52866.0,STARLINK-4272,PAYLOAD,2024-07-04 14:39:36,15.08842665,0.0001241,53.2167,256.3411,91.7097,268.4037,7.3908e-05,8.89e-06,0.0,0 STARLINK-4272,1 52866U 22062AN  24186.61084074  .00000889  00000-0  73908-4 0  9996,2 52866  53.2167 256.3411 0001241  91.7097 268.4037 15.08842665113376,6917.872,95.437,540.596,538.879,0.0
52866.0,STARLINK-4272,PAYLOAD,2024-07-05 11:19:37,15.08846951,0.0001205,53.2164,252.4761,92.2949,267.8181,7.0728e-05,8.38e-06,0.0,0 STARLINK-4272,1 52866U 22062AN  24187.47195926  .00000838  00000-0  70728-4 0  9991,2 52866  53.2164 252.4761 0001205  92.2949 267.8181 15.08846951113500,6917.859,95.437,540.558,538.891,0.0
52866.0,STARLINK-4272,PAYLOAD,2024-07-05 20:51:56,15.08841915,0.000119,53.2161,250.6906,79.3666,280.746,1.4119e-05,-6.3e-07,0.0,0 STARLINK-4272,1 52866U 22062AN  24187.86940362 -.00000063  00000-0  14119-4 0  9999,2 52866  53.2161 250.6906 0001190  79.3666 280.7460 15.08841915114053,6917.875,95.437,540.563,538.916,0.0
52866.0,STARLINK-4272,PAYLOAD,2024-07-06 04:48:52,15.08831853,0.0001298,53.2165,249.2055,84.7313,275.3827,1.7823e-05,-4e-08,0.0,0 STARLINK-4272,1 52866U 22062AN  24188.20061159 -.00000004  00000-0  17823-4 0  9996,2 52866  53.2165 249.2055 0001298  84.7313 275.3827 15.08831853114107,6917.905,95.438,540.668,538.872,0.0
52866.0,STARLINK-4272,PAYLOAD,2024-07-06 14:21:11,15.08838292,0.0001333,53.2165,247.421,83.5867,276.5277,5.4345e-05,5.77e-06,0.0,0 STARLINK-4272,1 52866U 22062AN  24188.59804634  .00000577  00000-0  54345-4 0  9995,2 52866  53.2165 247.4210 0001333  83.5867 276.5277 15.08838292113678,6917.886,95.438,540.673,538.828,0.0
52866.0,STARLINK-4272,PAYLOAD,2024-07-06 20:42:44,15.08835861,0.0001336,53.2166,246.2316,83.6898,276.4246,-2.34e-05,-6.6e-06,0.0,0 STARLINK-4272,1 52866U 22062AN  24188.86301029 -.00000660  00000-0 -23400-4 0  9998,2 52866  53.2166 246.2316 0001336  83.6898 276.4246 15.08835861113710,6917.893,95.438,540.682,538.834,0.0
52866.0,STARLINK-4272,PAYLOAD,2024-07-07 09:25:49,15.08838471,0.0001388,53.2175,243.8536,88.1723,271.9428,1.6735e-05,-2.2e-07,0.0,0 STARLINK-4272,1 52866U 22062AN  24189.39292956 -.00000022  00000-0  16735-4 0  9999,2 52866  53.2175 243.8536 0001388  88.1723 271.9428 15.08838471114286,6917.885,95.438,540.71,538.79,0.0
52866.0,STARLINK-4272,PAYLOAD,2024-07-08 10:51:59,15.08840388,0.000132,53.2161,239.0939,88.7123,271.402,8.8315e-05,1.118e-05,0.0,0 STARLINK-4272,1 52866U 22062AN  24190.45276741  .00001118  00000-0  88315-4 0  9991,2 52866  53.2161 239.0939 0001320  88.7123 271.4020 15.08840388114442,6917.879,95.438,540.657,538.831,0.0
52866.0,STARLINK-4272,PAYLOAD,2024-07-08 20:24:18,15.08839223,0.0001339,53.2166,237.3096,87.1983,272.9162,7.5017e-05,9.06e-06,0.0,0 STARLINK-4272,1 52866U 22062AN  24190.85020927  .00000906  00000-0  75017-4 0  9997,2 52866  53.2166 237.3096 0001339  87.1983 272.9162 15.08839223114011,6917.883,95.438,540.674,538.821,0.0
52866.0,STARLINK-4272,PAYLOAD,2024-07-09 10:42:46,15.08840044,0.0001311,53.2156,234.6336,88.4103,271.7039,3.6981e-05,3.01e-06,0.0,0 STARLINK-4272,1 52866U 22062AN  24191.44637046  .00000301  00000-0  36981-4 0  9995,2 52866  53.2156 234.6336 0001311  88.4103 271.7039 15.08840044114108,6917.88,95.438,540.652,538.838,0.0
52866.0,STARLINK-4272,PAYLOAD,2024-07-10 12:08:56,15.0884197,0.0001336,53.2156,229.8757,86.8956,273.2189,4.1376e-05,3.71e-06,0.0,0 STARLINK-4272,1 52866U 22062AN  24192.50621003  .00000371  00000-0  41376-4 0  9990,2 52866  53.2156 229.8757 0001336  86.8956 273.2189 15.08841970114759,6917.874,95.437,540.664,538.815,0.0
52866.0,STARLINK-4272,PAYLOAD,2024-07-11 08:48:57,15.08843036,0.0001329,53.2156,226.0091,88.4176,271.6969,7.075e-05,8.38e-06,0.0,0 STARLINK-4272,1 52866U 22062AN  24193.36732816  .00000838  00000-0  70750-4 0  9996,2 52866  53.2156 226.0091 0001329  88.4176 271.6969 15.08843036114396,6917.871,95.437,540.655,538.817,0.0
52866.0,STARLINK-4272,PAYLOAD,2024-07-12 05:28:58,15.0883954,0.0001416,53.2165,222.143,91.3981,268.7173,3.8559e-05,3.26e-06,0.0,0 STARLINK-4272,1 52866U 22062AN  24194.22845202  .00000326  00000-0  38559-4 0  9999,2 52866  53.2165 222.1430 0001416  91.3981 268.7173 15.08839540115013,6917.882,95.438,540.726,538.767,0.0
52866.0,STARLINK-4272,PAYLOAD,2024-07-12 08:39:44,15.08839637,0.0001395,53.2163,221.5486,89.2183,270.8969,3.4246e-05,2.57e-06,0.0,0 STARLINK-4272,1 52866U 22062AN  24194.36093206  .00000257  00000-0  34246-4 0  9995,2 52866  53.2163 221.5486 0001395  89.2183 270.8969 15.08839637114542,6917.881,95.438,540.712,538.781,0.0
52866.0,STARLINK-4272,PAYLOAD,2024-07-13 08:30:31,15.08842434,0.0001374,53.2161,217.0894,89.6855,270.4295,4.0751e-05,3.61e-06,0.0,0 STARLINK-4272,1 52866U 22062AN  24195.35453014  .00000361  00000-0  40751-4 0  9996,2 52866  53.2161 217.0894 0001374  89.6855 270.4295 15.08842434115188,6917.873,95.437,540.688,538.787,0.0
52866.0,STARLINK-4272,PAYLOAD,2024-07-13 18:02:50,15.08839699,0.0001326,53.2155,215.3049,88.2712,271.8432,2.916e-05,1.76e-06,0.0,0 STARLINK-4272,1 52866U 22062AN  24195.75197209  .00000176  00000-0  29160-4 0  9996,2 52866  53.2155 215.3049 0001326  88.2712 271.8432 15.08839699114757,6917.881,95.438,540.664,538.829,0.0
52866.0,STARLINK-4272,PAYLOAD,2024-07-14 09:56:41,15.08838937,0.0001339,53.2157,212.3312,88.3647,271.7499,6.084e-05,6.8e-06,0.0,0 STARLINK-4272,1 52866U 22062AN  24196.41437299  .00000680  00000-0  60840-4 0  9996,2 52866  53.2157 212.3312 0001339  88.3647 271.7499 15.08838937115343,6917.884,95.438,540.675,538.822,0.0
52866.0,STARLINK-4272,PAYLOAD,2024-07-14 17:53:37,15.08838687,0.0001332,53.2157,210.8443,87.6574,272.4571,5.1986e-05,5.4e-06,0.0,0 STARLINK-4272,1 52866U 22062AN  24196.74557369  .00000540  00000-0  51986-4 0  9999,2 52866  53.2157 210.8443 0001332  87.6574 272.4571 15.08838687114907,6917.884,95.438,540.671,538.828,0.0
